IRIDIUM 144             
1 43249U 18030A   24277.17448078  .00000961  00000+0  33615-3 0  9991
2 43249  86.4043 190.3693 0002465  83.8746 276.2731 14.34219891341001
IRIDIUM 149             
1 43250U 18030B   24276.62267361  .00001281  00000+0  45022-3 0  9997
2 43250  86.4042 190.5743 0002532  81.4202 278.7280 14.34223591340924
IRIDIUM 157             
1 43251U 18030C   24276.71147007  .00000299  00000+0  99785-4 0  9996
2 43251  86.4043 190.5763 0002398  74.4489 285.6971 14.34219608340914
IRIDIUM 140             
1 43252U 18030D   24276.80025683  .00002100  00000+0  74255-3 0  9999
2 43252  86.4042 190.5534 0002271  88.9271 271.2185 14.34219973340989
IRIDIUM 145             
1 43253U 18030E   24276.64802443  .00001212  00000+0  42560-3 0  9996
2 43253  86.4043 190.5900 0002674  93.0261 267.1240 14.34217168340891
IRIDIUM 146             
1 43254U 18030F   24277.18716595  .00000322  00000+0  10804-3 0  9996
2 43254  86.4040 190.3800 0002544  90.3821 269.7667 14.34217262340980
IRIDIUM 148             
1 43255U 18030G   24276.73682954  .00001545  00000+0  54436-3 0  9995
2 43255  86.4044 190.6014 0002436  84.2605 275.8868 14.34228691340953
IRIDIUM 142             
1 43256U 18030H   24277.12373743  .00001732  00000+0  61104-3 0  9991
2 43256  86.4046 190.3516 0002874  87.4864 272.6661 14.34222021340977
